{
    "links": {
        "self": "http://www.neowsapp.com/rest/v1/neo/3597093?api_key=iIulBulltgU6a56xZRHN4H3l9WmuAYTsLGpBGhQ2"
    },
    "id": "3597093",
    "neo_reference_id": "3597093",
    "name": "(2012 BP123)",
    "designation": "2012 BP123",
    "nasa_jpl_url": "http://ssd.jpl.nasa.gov/sbdb.cgi?sstr=3597093",
    "absolute_magnitude_h": 27.1,
    "estimated_diameter": {
        "kilometers": {
            "estimated_diameter_min": 0.0101054342,
            "estimated_diameter_max": 0.0225964377
        },
        "meters": {
            "estimated_diameter_min": 10.1054341542,
            "estimated_diameter_max": 22.5964377109
        },
        "miles": {
            "estimated_diameter_min": 0.0062792237,
            "estimated_diameter_max": 0.0140407711
        },
        "feet": {
            "estimated_diameter_min": 33.1543125905,
            "estimated_diameter_max": 74.1352966996
        }
    },
    "is_potentially_hazardous_asteroid": false,
    "close_approach_data": [
        {
            "close_approach_date": "2012-01-10",
            "close_approach_date_full": "2012-Jan-10 05:55",
            "epoch_date_close_approach": 1326174900000,
            "relative_velocity": {
                "kilometers_per_second": "3.548423666",
                "kilometers_per_hour": "12774.3251977296",
                "miles_per_hour": "7937.4688985559"
            },
            "miss_distance": {
                "astronomical": "0.0294618529",
                "lunar": "11.4606607781",
                "kilometers": "4407430.440093323",
                "miles": "2738650.2825729374"
            },
            "orbiting_body": "Earth"
        }
    ],
    "orbital_data": {
        "orbit_id": "4",
        "orbit_determination_date": "2017-04-06 08:51:05",
        "first_observation_date": "2012-01-31",
        "last_observation_date": "2012-02-01",
        "data_arc_in_days": 1,
        "observations_used": 13,
        "orbit_uncertainty": "9",
        "minimum_orbit_intersection": ".0274212",
        "jupiter_tisserand_invariant": "5.552",
        "epoch_osculation": "2455958.5",
        "eccentricity": ".156215317813656",
        "semi_major_axis": "1.122571940873384",
        "inclination": "2.594299569967912",
        "ascending_node_longitude": "148.577600713272",
        "orbital_period": "434.4298925656082",
        "perihelion_distance": ".9472090083611558",
        "perihelion_argument": "272.7452291019228",
        "aphelion_distance": "1.297934873385613",
        "perihelion_time": "2455893.639111680843",
        "mean_anomaly": "53.74841877707617",
        "mean_motion": ".82867225796538",
        "equinox": "J2000",
        "orbit_class": {
            "orbit_class_type": "APO",
            "orbit_class_description": "Near-Earth asteroid orbits which cross the Earth’s orbit similar to that of 1862 Apollo",
            "orbit_class_range": "a (semi-major axis) > 1.0 AU; q (perihelion) < 1.017 AU"
        }
    },
    "is_sentry_object": false
}